[{"business_name":"Stoltenberg LLC","type":"Technician","address":{"street":"922 Saxon Ave.","city":"Los Angeles","state":"CA","zip":"90034"}},{"business_name":"Ruecker and Sons","type":"Technician","address":{"street":"703 Walnutwood Street","city":"Tustin","state":"CA","zip":"92780"}},{"business_name":"Heidenreich, Botsford and Steuber","type":"Technician","address":{"street":"805 Oakwood Ave.","city":"Pico Rivera","state":"CA","zip":"90660"}},{"business_name":"Berge Inc","type":"Technician","address":{"street":"8 W. Sage Court","city":"Folsom","state":"CA","zip":"95630"}},{"business_name":"Jenkins, Keebler and Gislason","type":"Technician","address":{"street":"7 ","city":"York Rd. Santa Ana","state":"CA","zip":"92707"}},{"business_name":"Windler - West","type":"Technician","address":{"street":"8489 Primrose Dr.","city":"San Bernardino","state":"CA","zip":"92404"}},{"business_name":"Zieme, Larson and Dickens","type":"Technician","address":{"street":"28 North Bowman Dr.","city":"Victorville","state":"CA","zip":"92392"}},{"business_name":"Schamberger - Pollich","type":"Technician","address":{"street":"918 Sussex Ave.","city":"Vallejo","state":"CA","zip":"94591"}},{"business_name":"Braun Group","type":"Technician","address":{"street":"8473 Mechanic Street","city":"Canyon Country","state":"CA","zip":"91351"}},{"business_name":"Gutkowski and Sons","type":"Technician","address":{"street":"8674 W. River St.","city":"San Jose","state":"CA","zip":"95116"}},{"business_name":"Smitham, Wehner and Kassulke","type":"Technician","address":{"street":"857 Bowman St.","city":"San Francisco","state":"CA","zip":"94109"}},{"business_name":"Green, Bernier and Bernhard","type":"Technician","address":{"street":"48 NE. High Drive","city":"Chula Vista","state":"CA","zip":"91911"}},{"business_name":"Feest and Sons","type":"Technician","address":{"street":"47 Glenholme Street","city":"San Diego","state":"CA","zip":"92115"}},{"business_name":"Flatley Inc","type":"Technician","address":{"street":"70 Hudson Ave.","city":"Hawthorne","state":"CA","zip":"90250"}},{"business_name":"Bode, Schulist and Toy","type":"Technician","address":{"street":"4 Cottage St.","city":"South San Francisco","state":"CA","zip":"94080"}},{"business_name":"Walter Group","type":"Technician","address":{"street":"493 Cleveland Drive","city":"Rancho Cucamonga","state":"CA","zip":"91730"}},{"business_name":"King, Hoeger and Hirthe","type":"Technician","address":{"street":"70 South Van Dyke St.","city":"National City","state":"CA","zip":"91950"}},{"business_name":"Konopelski, Bechtelar and Reinger","type":"Technician","address":{"street":"689 Liberty St.","city":"La Puente","state":"CA","zip":"91744"}},{"business_name":"Hilll Inc","type":"Technician","address":{"street":"7603 Ramblewood St.","city":"San Jose","state":"CA","zip":"95122"}},{"business_name":"Champlin, Skiles and Schaefer","type":"Technician","address":{"street":"8756 St Margarets Drive","city":"Anaheim","state":"CA","zip":"92801"}},{"business_name":"Lueilwitz - Pfeffer","type":"Technician","address":{"street":"8642 Cedar Ave.","city":"Santa Ana","state":"CA","zip":"92703"}},{"business_name":"Auer Group","type":"Technician","address":{"street":"655 William Dr.","city":"Los Angeles","state":"CA","zip":"90022"}},{"business_name":"Reichel, Cassin and Nienow","type":"Technician","address":{"street":"585 ","city":"East Wood Road Corona","state":"CA","zip":"92882"}},{"business_name":"Klocko Group","type":"Technician","address":{"street":"29 Myrtle St.","city":"Wilmington","state":"CA","zip":"90744"}},{"business_name":"Beer, Paucek and Trantow","type":"Technician","address":{"street":"73 Argyle Drive","city":"Bakersfield","state":"CA","zip":"93309"}},{"business_name":"Pagac, Turcotte and Vandervort","type":"Technician","address":{"street":"447 North Wood St.","city":"Union City","state":"CA","zip":"94587"}},{"business_name":"Kunze Group","type":"Technician","address":{"street":"48 Overlook St.","city":"San Jose","state":"CA","zip":"95127"}},{"business_name":"Mosciski Group","type":"Technician","address":{"street":"8508 Highland Court","city":"Sylmar","state":"CA","zip":"91342"}},{"business_name":"Mayert - Abbott","type":"Technician","address":{"street":"112 Henry Smith Ave.","city":"Porterville","state":"CA","zip":"93257"}},{"business_name":"Beer, Weissnat and MacGyver","type":"Technician","address":{"street":"8315 Sherman Ave.","city":"Los Angeles","state":"CA","zip":"90003"}},{"business_name":"Gislason Inc","type":"Technician","address":{"street":"44 Bank St.","city":"Milpitas","state":"CA","zip":"95035"}},{"business_name":"Carroll - Willms","type":"Technician","address":{"street":"67 SW. Laurel St.","city":"Panorama City","state":"CA","zip":"91402"}},{"business_name":"Kerluke and Sons","type":"Technician","address":{"street":"744 Avenue","city":"Tulare","state":"CA","zip":"93274"}},{"business_name":"Connelly, Kuhic and Kirlin","type":"Technician","address":{"street":"88 Livingston Street","city":"Santa Ana","state":"CA","zip":"92701"}},{"business_name":"Beer Inc","type":"Technician","address":{"street":"621 Durham Ave.","city":"San Pablo","state":"CA","zip":"94806"}},{"business_name":"Harris Group","type":"Technician","address":{"street":"996 South Canterbury St.","city":"Long Beach","state":"CA","zip":"90813"}},{"business_name":"Carter, Zemlak and Hayes","type":"Technician","address":{"street":"623 ","city":"S. Oak Rd. Riverside","state":"CA","zip":"92503"}},{"business_name":"Kreiger - West","type":"Technician","address":{"street":"792 East Pennsylvania Court","city":"Laguna Niguel","state":"CA","zip":"92677"}},{"business_name":"Casper, Rosenbaum and Turner","type":"Technician","address":{"street":"18 Country Street","city":"Los Angeles","state":"CA","zip":"90026"}},{"business_name":"Hoppe Group","type":"Technician","address":{"street":"\"819 Sunset Dr.","city":"Reseda","state":"CA","zip":"91335"}},{"business_name":"Friesen, Becker and Luettgen","type":"Technician","address":{"street":"9558 Jockey Hollow Dr.","city":"Cerritos","state":"CA","zip":"90703"}},{"business_name":"Konopelski, Considine and Kreiger","type":"Technician","address":{"street":"74 W. Kirkland Ave.","city":"Fresno","state":"CA","zip":"93727"}},{"business_name":"Ryan - Murphy","type":"Technician","address":{"street":"104 Smith Store Street","city":"Huntington Beach","state":"CA","zip":"92646"}},{"business_name":"Block Inc","type":"Technician","address":{"street":"511C Hill Dr.","city":"Van Nuys","state":"CA","zip":"91405"}},{"business_name":"Wiza - Funk","type":"Technician","address":{"street":"735 Wellington St.","city":"North Hills","state":"CA","zip":"91343"}},{"business_name":"Paucek - Rempel","type":"Technician","address":{"street":"7750 Oakland Court","city":"Rialto","state":"CA","zip":"92376"}},{"business_name":"Legros LLC","type":"Technician","address":{"street":"88 Dogwood Ave.","city":"Westminster","state":"CA","zip":"92683"}},{"business_name":"Dare, Haley and Thompson","type":"Technician","address":{"street":"98 Forest St.","city":"Simi Valley","state":"CA","zip":"93065"}},{"business_name":"Ferry, Ortiz and Pfannerstill","type":"Technician","address":{"street":"28 Ryan St.","city":"Chino","state":"CA","zip":"91710"}},{"business_name":"Feeney - Swift","type":"Technician","address":{"street":"70 West Ave.","city":"Costa Mesa","state":"CA","zip":"92627"}},{"business_name":"West - Boyer","type":"Technician","address":{"street":"9176 Ramblewood Avenue","city":"Fairfield","state":"CA","zip":"94533"}},{"business_name":"Schroeder - Streich","type":"Technician","address":{"street":"97 Ocean Drive","city":"Lancaster","state":"CA","zip":"93535"}},{"business_name":"Nitzsche and Sons","type":"Technician","address":{"street":"8314 Griffin Avenue","city":"Livermore","state":"CA","zip":"94550"}},{"business_name":"Labadie, Swift and Waelchi","type":"Technician","address":{"street":"7920 Miles St.","city":"San Diego","state":"CA","zip":"92117"}},{"business_name":"Nader, Dare and Harvey","type":"Technician","address":{"street":"74 Oklahoma Street","city":"North Hollywood","state":"CA","zip":"91605"}},{"business_name":"Gottlieb - Lesch","type":"Technician","address":{"street":"9534 ","city":"North Manhattan Road Los Angeles","state":"CA","zip":"90006"}},{"business_name":"Hand - Stanton","type":"Technician","address":{"street":"9107 ","city":"Randall Mill Circle Carson","state":"CA","zip":"90745"}},{"business_name":"Keebler - Kautzer","type":"Technician","address":{"street":"8598 Manhattan Court","city":"Oceanside","state":"CA","zip":"92056"}},{"business_name":"Wolff, Champlin and McDermott","type":"Technician","address":{"street":"18 Myers Ave.","city":"Chula Vista","state":"CA","zip":"91910"}},{"business_name":"Wintheiser, Wisozk and Shanahan","type":"Technician","address":{"street":"61 NW. State Drive","city":"La Habra","state":"CA","zip":"90631"}},{"business_name":"Ritchie - Lebsack","type":"Technician","address":{"street":"8272 Augusta Street","city":"Salinas","state":"CA","zip":"93905"}},{"business_name":"Fahey, Gerlach and Metz","type":"Technician","address":{"street":"7334 South Griffin St.","city":"Anaheim","state":"CA","zip":"92804"}},{"business_name":"Daugherty - Huels","type":"Technician","address":{"street":"39 Leeton Ridge St.","city":"Colton","state":"CA","zip":"92324"}},{"business_name":"Funk - Hayes","type":"Technician","address":{"street":"9321 NW. Hartford Street","city":"Santa Ana","state":"CA","zip":"92704"}},{"business_name":"Bailey Group","type":"Technician","address":{"street":"8000 Sunset Ave.","city":"Sacramento","state":"CA","zip":"95828"}},{"business_name":"Ernser - Sipes","type":"Technician","address":{"street":"201 Smith St.","city":"Indio","state":"CA","zip":"92201"}},{"business_name":"Feest - Maggio","type":"Technician","address":{"street":"8126 Fifth Ave.","city":"Hayward","state":"CA","zip":"94541"}},{"business_name":"Strosin, Dickinson and Blanda","type":"Technician","address":{"street":"5 Ridgeview Street","city":"Long Beach","state":"CA","zip":"90805"}},{"business_name":"Adams - Hoeger","type":"Technician","address":{"street":"30 North Sussex St.","city":"Sunnyvale","state":"CA","zip":"94086"}},{"business_name":"Boyle, Purdy and Pacocha","type":"Technician","address":{"street":"52 King Drive","city":"Hanford","state":"CA","zip":"93230"}},{"business_name":"Boyer - O'Connell","type":"Technician","address":{"street":"74 Plumb Branch Drive","city":"Vista","state":"CA","zip":"92083"}},{"business_name":"Rohan - Schinner","type":"Technician","address":{"street":"49 Columbia St.","city":"Chino Hills","state":"CA","zip":"91709"}},{"business_name":"Kassulke - Rolfson","type":"Technician","address":{"street":"17 Arrowhead Street","city":"Bakersfield","state":"CA","zip":"93306"}},{"business_name":"Trantow, Towne and Douglas","type":"Technician","address":{"street":"7928 Summit Street","city":"San Marcos","state":"CA","zip":"92069"}},{"business_name":"Kassulke LLC","type":"Technician","address":{"street":"386 Hamilton Dr.","city":"Oxnard","state":"CA","zip":"93030"}},{"business_name":"Pfannerstill, Reilly and Lindgren","type":"Technician","address":{"street":"9 Sierra St.","city":"Van Nuys","state":"CA","zip":"91406"}},{"business_name":"Zulauf Inc","type":"Technician","address":{"street":"8756 SE. Smith Store Ave.","city":"Hesperia","state":"CA","zip":"92345"}},{"business_name":"Langosh, O'Kon and Crona","type":"Technician","address":{"street":"32 Baker St.","city":"Riverside","state":"CA","zip":"92509"}},{"business_name":"Erdman, Kiehn and Boyer","type":"Technician","address":{"street":"7255 E. Indian Spring Avenue","city":"San Diego","state":"CA","zip":"92154"}},{"business_name":"Batz LLC","type":"Technician","address":{"street":"7280 West Oxford Court","city":"Sunnyvale","state":"CA","zip":"94087"}},{"business_name":"Heathcote - Bergnaum","type":"Technician","address":{"street":"91 West 2nd Ave.","city":"Hayward","state":"CA","zip":"94544"}},{"business_name":"McDermott - Gerhold","type":"Technician","address":{"street":"93 Adams St.","city":"South Gate","state":"CA","zip":"90280"}},{"business_name":"Kassulke - Schuster","type":"Technician","address":{"street":"9468 Birch Hill St.","city":"Los Angeles","state":"CA","zip":"90037"}},{"business_name":"Quigley LLC","type":"Technician","address":{"street":"379 Young Ave.","city":"Pittsburg","state":"CA","zip":"94565"}},{"business_name":"Emard - Mann","type":"Technician","address":{"street":"217 ","city":"Hawthorne Rd. Anaheim","state":"CA","zip":"92805"}},{"business_name":"Nicolas - Morar","type":"Technician","address":{"street":"7 Penn Dr.","city":"Fontana","state":"CA","zip":"92336"}},{"business_name":"MacGyver - Williamson","type":"Technician","address":{"street":"7 N. Front Street","city":"Compton","state":"CA","zip":"90221"}},{"business_name":"Predovic and Sons","type":"Technician","address":{"street":"8339 South Canal Ave.","city":"Azusa","state":"CA","zip":"91702"}},{"business_name":"Shields, Olson and Kutch","type":"Technician","address":{"street":"7066 Overlook Drive","city":"Bakersfield","state":"CA","zip":"93307"}},{"business_name":"Hauck - Hessel","type":"Technician","address":{"street":"6 ","city":"N. Border Lane Oakland","state":"CA","zip":"94601"}},{"business_name":"Champlin - Padberg","type":"Technician","address":{"street":"485 Broad Street","city":"San Jose","state":"CA","zip":"95112"}},{"business_name":"Haley Group","type":"Technician","address":{"street":"182 Marlborough Street","city":"Ontario","state":"CA","zip":"91762"}},{"business_name":"Spinka - Wilkinson","type":"Technician","address":{"street":"871 ","city":"Ann Rd. Los Angeles","state":"CA","zip":"90001"}},{"business_name":"Kunde, Morar and Hermann","type":"Technician","address":{"street":"9843A Depot Court","city":"El Cajon","state":"CA","zip":"92020"}},{"business_name":"Koepp, Aufderhar and Raynor","type":"Technician","address":{"street":"35 New Dr.","city":"San Francisco","state":"CA","zip":"94122"}},{"business_name":"Kuhn Group","type":"Technician","address":{"street":"9801 Fairground Dr.","city":"Moreno Valley","state":"CA","zip":"92553"}},{"business_name":"Herzog, Kihn and Paucek","type":"Technician","address":{"street":"830 Berkshire Street","city":"Pacoima","state":"CA","zip":"91331"}},{"business_name":"Ziemann, Carter and Reichel","type":"Technician","address":{"street":"47 Mammoth Dr.","city":"San Diego","state":"CA","zip":"92114"}},{"business_name":"O'Reilly - Powlowski","type":"Technician","address":{"street":"139 ","city":"Poplar Lane Vacaville","state":"CA","zip":"95687"}},{"business_name":"Fay - O'Reilly","type":"Technician","address":{"street":"89 West Hillside Dr.","city":"Fountain Valley","state":"CA","zip":"92708"}}]